ONEWEB-0271             
1 48989U 21060Y   24343.93705040  .00000031  00000+0  46445-4 0  9991
2 48989  87.9083 339.3892 0001588  78.5590 281.5720 13.16591963166606
ONEWEB-0272             
1 48990U 21060Z   24343.95922916  .00000119  00000+0  27712-3 0  9990
2 48990  87.9082 339.4154 0001691  81.7767 278.3556 13.16592978166558
ONEWEB-0273             
1 48991U 21060AA  24343.90539915  .00000127  00000+0  29780-3 0  9995
2 48991  87.9081 339.4120 0001569  86.9579 273.1731 13.16592682166520
ONEWEB-0274             
1 48992U 21060AB  24343.93074074  .00000124  00000+0  29115-3 0  9998
2 48992  87.9091 339.4323 0002092  77.2145 282.9220 13.16594612166561
ONEWEB-0275             
1 48993U 21060AC  24343.69165942  .00000173  00000+0  41987-3 0  9992
2 48993  87.9083 339.4493 0001707  83.1522 276.9803 13.16593730166467
ONEWEB-0276             
1 48994U 21060AD  24343.95289603  .00000092  00000+0  20824-3 0  9990
2 48994  87.9083 339.3936 0001560  84.1992 275.9317 13.16593293166517
ONEWEB-0277             
1 48995U 21060AE  24343.96556171  .00000164  00000+0  39484-3 0  9991
2 48995  87.9081 339.4287 0001528  73.7304 286.3995 13.16593157166507
ONEWEB-0278             
1 48996U 21060AF  24343.95606228  .00000059  00000+0  12103-3 0  9992
2 48996  87.9082 339.3899 0001688  96.4501 263.6822 13.16592707166636
ONEWEB-0279             
1 48997U 21060AG  24343.96397582  .00000163  00000+0  39166-3 0  9998
2 48997  87.9081 339.3852 0001675  75.4303 284.7014 13.16592484166569
ONEWEB-0280             
1 48998U 21060AH  24343.52304479  .00000121  00000+0  28185-3 0  9997
2 48998  87.9083 339.4770 0001390  86.6893 273.4397 13.16592527166448
ONEWEB-0281             
1 48999U 21060AJ  24343.75658102  .00000081  00000+0  17933-3 0  9992
2 48999  87.9081 339.4303 0001916  85.9958 274.1392 13.16594503166547
ONEWEB-0282             
1 49000U 21060AK  24343.93864633  .00000091  00000+0  20511-3 0  9991
2 49000  87.9082 339.4104 0001532  84.2182 275.9123 13.16593667166547
ONEWEB-0283             
1 49001U 21060AL  24343.69957560  .00000156  00000+0  37438-3 0  9995
2 49001  87.9081 339.4631 0001774  79.8343 280.2988 13.16593487166525
ONEWEB-0284             
1 49002U 21060AM  24343.69323145  .00000231  00000+0  57012-3 0  9996
2 49002  87.9074 339.4376 0001672  94.2483 265.8839 13.16592781166505
ONEWEB-0285             
1 49075U 21075A   24343.82502963 -.00000441  00000+0 -12616-2 0  9999
2 49075  87.8877 101.2516 0001526 104.7741 255.3557 13.12444099162363
ONEWEB-0286             
1 49076U 21075B   24343.87273578  .00000394  00000+0  10609-2 0  9997
2 49076  87.8876 101.2397 0001765 106.8307 253.3015 13.12441782161728
ONEWEB-0287             
1 49077U 21075C   24343.92137968  .00000126  00000+0  29088-3 0  9991
2 49077  87.9092 116.4801 0001563 108.0685 252.0617 13.17651145160507
ONEWEB-0288             
1 49078U 21075D   24343.85895511  .00000516  00000+0  13986-2 0  9991
2 49078  87.8875 101.2453 0001559 108.8694 251.2604 13.12441943162343
ONEWEB-0289             
1 49079U 21075E   24343.41850134  .00000129  00000+0  29991-3 0  9990
2 49079  87.9091 116.6096 0001511  97.7901 262.3402 13.17646879161015
ONEWEB-0290             
1 49080U 21075F   24343.93318154  .00000047  00000+0  88205-4 0  9993
2 49080  87.9095 116.4663 0000860 111.4201 248.7023 13.17649773160496
ONEWEB-0291             
1 49081U 21075G   24343.91799948  .00000162  00000+0  38435-3 0  9993
2 49081  87.9086 116.4817 0001524 112.0504 248.0790 13.17649733160488
ONEWEB-0293             
1 49082U 21075H   24343.86738513  .00000019  00000+0  15119-4 0  9995
2 49082  87.9090 116.5141 0001365 105.6391 254.4891 13.17651663160501
ONEWEB-0294             
1 49083U 21075J   24343.86544022  .00000230  00000+0  60399-3 0  9990
2 49083  87.8878 101.2434 0001381 126.6234 233.5021 13.12442203161730
ONEWEB-0295             
1 49084U 21075K   24343.86655195  .00000055  00000+0  10854-3 0  9991
2 49084  87.9093 116.4933 0001736 111.7060 248.4256 13.17649986160465
ONEWEB-0296             
1 49085U 21075L   24343.84596232 -.00000133  00000+0 -40626-3 0  9995
2 49085  87.8876 101.2515 0001836 126.0493 234.0805 13.12443684161736
ONEWEB-0297             
1 49086U 21075M   24343.87679745  .00000299  00000+0  79440-3 0  9997
2 49086  87.8887 101.2654 0001612 103.2628 256.8681 13.12442560162346
ONEWEB-0298             
1 49087U 21075N   24343.87090653  .00000108  00000+0  24450-3 0  9993
2 49087  87.9092 116.5101 0001768 100.7582 259.3748 13.17649280160494
ONEWEB-0299             
1 49088U 21075P   24343.87245215  .00000093  00000+0  20577-3 0  9999
2 49088  87.9086 116.4715 0001785 102.3549 257.7782 13.17650478160477
ONEWEB-0300             
1 49089U 21075Q   24343.86868011  .00000169  00000+0  43474-3 0  9999
2 49089  87.8878 101.2408 0001691  90.3264 269.8058 13.12441589162369
ONEWEB-0301             
1 49090U 21075R   24343.85245677  .00000070  00000+0  15908-3 0  9999
2 49090  87.8875 101.2481 0001618  90.6025 269.5289 13.12443671161722
ONEWEB-0302             
1 49091U 21075S   24343.83946395 -.00000077  00000+0 -25007-3 0  9993
2 49091  87.8877 101.2504 0001439 119.7015 240.4257 13.12441416161700
ONEWEB-0304             
1 49092U 21075T   24343.92306710  .00000139  00000+0  32459-3 0  9991
2 49092  87.9095 116.4844 0001630 105.6431 254.4881 13.17649275160455
ONEWEB-0305             
1 49093U 21075U   24343.84038085  .00000113  00000+0  25768-3 0  9997
2 49093  87.9092 116.4834 0001960 108.1733 251.9612 13.17651981160474
ONEWEB-0308             
1 49094U 21075V   24343.83298643 -.00001309  00000+0 -36735-2 0  9990
2 49094  87.8874 101.2487 0001605  99.4619 260.6690 13.12446962161716
ONEWEB-0309             
1 49095U 21075W   24343.91967955  .00000105  00000+0  23706-3 0  9995
2 49095  87.9092 116.4776 0001232 119.7305 240.3949 13.17652830160453
ONEWEB-0310             
1 49096U 21075X   24343.84760008  .00000287  00000+0  76125-3 0  9992
2 49096  87.8885 101.2701 0001440 106.7336 253.3951 13.12445486162343
ONEWEB-0311             
1 49097U 21075Y   24343.85050154  .00000045  00000+0  83550-4 0  9991
2 49097  87.9091 116.4923 0001964 106.7589 253.3758 13.17651635160498
ONEWEB-0312             
1 49098U 21075Z   24343.86568733  .00000041  00000+0  71575-4 0  9990
2 49098  87.9094 116.5209 0001697 116.4234 243.7072 13.17649708160476
ONEWEB-0313             
1 49099U 21075AA  24343.87062779  .00000054  00000+0  10695-3 0  9990
2 49099  87.9091 116.5356 0001643 108.5081 251.6229 13.17650353160469
ONEWEB-0314             
1 49100U 21075AB  24343.91294070  .00000123  00000+0  28472-3 0  9998
2 49100  87.9089 116.4658 0001685 114.7362 245.3945 13.17652292160447
ONEWEB-0315             
1 49101U 21075AC  24343.82163971 -.00000366  00000+0 -10520-2 0  9999
2 49101  87.8874 101.2430 0001967 101.0280 259.1070 13.12442535162323
ONEWEB-0316             
1 49102U 21075AD  24343.81940586  .00000032  00000+0  48211-4 0  9992
2 49102  87.9115  85.9684 0001831 105.2026 254.9309 13.18688618164012
ONEWEB-0317             
1 49103U 21075AE  24343.89138967 -.00000177  00000+0 -52843-3 0  9990
2 49103  87.8877 101.2418 0001084  93.9707 266.1546 13.12442213162359
ONEWEB-0318             
1 49104U 21075AF  24343.81624994  .00000019  00000+0  16669-4 0  9993
2 49104  87.9112  85.9580 0001931 105.3875 254.7471 13.18686091163975
ONEWEB-0319             
1 49105U 21075AG  24343.92814115  .00000019  00000+0  16567-4 0  9999
2 49105  87.9096 116.5023 0002023 106.3259 253.8095 13.17649903160485
ONEWEB-0323             
1 49106U 21075AH  24343.88166734 -.00000001  00000+0 -38132-4 0  9997
2 49106  87.8877 101.2303 0002340 111.0920 249.0459 13.12442904161719
ONEWEB-0329             
1 49107U 21075AJ  24343.93656381  .00000030  00000+0  45310-4 0  9992
2 49107  87.9093 116.5048 0001688 106.9504 253.1813 13.17652278160464
ONEWEB-0330             
1 49108U 21075AK  24343.86232089  .00000057  00000+0  11259-3 0  9993
2 49108  87.9093 116.5213 0001521 111.4767 248.6527 13.17649487160499
ONEWEB-0292             
1 49186U 21083A   24343.75344070 -.00000150  00000+0 -44689-3 0  9999
2 49186  87.8934  70.7334 0001905 102.9013 257.2329 13.13469457158012
ONEWEB-0303             
1 49187U 21083B   24343.81308080  .00000107  00000+0  23965-3 0  9992
2 49187  87.9112  85.9598 0001849 103.5701 256.5637 13.18688347156782
ONEWEB-0306             
1 49188U 21083C   24343.80359663  .00000060  00000+0  11953-3 0  9997
2 49188  87.9110  85.9474 0001497 106.0193 254.1104 13.18687241156826
ONEWEB-0307             
1 49189U 21083D   24343.74789107 -.00000235  00000+0 -67749-3 0  9991
2 49189  87.8936  70.7365 0001387 112.6938 247.4337 13.13469894158014
ONEWEB-0320             
1 49190U 21083E   24343.80992196  .00000061  00000+0  12114-3 0  9995
2 49190  87.9113  85.9729 0001652 104.8100 255.3215 13.18687959156789
ONEWEB-0321             
1 49191U 21083F   24343.82790309  .00000089  00000+0  18590-3 0  9994
2 49191  87.9262  24.9289 0001611  94.1634 265.9684 13.20773158163524
ONEWEB-0322             
1 49192U 21083G   24343.74392346 -.00000240  00000+0 -69174-3 0  9990
2 49192  87.8936  70.7266 0001264 101.2993 258.8278 13.13470175158000
ONEWEB-0324             
1 49193U 21083H   24343.79569953  .00000033  00000+0  49808-4 0  9997
2 49193  87.9113  85.9561 0001744 112.9287 247.2029 13.18686689156809
ONEWEB-0325             
1 49194U 21083J   24343.80044797  .00000069  00000+0  14292-3 0  9991
2 49194  87.9114  85.9711 0001613 102.2427 257.8886 13.18686819156815
ONEWEB-0326             
1 49195U 21083K   24343.81466881  .00000080  00000+0  16957-3 0  9998
2 49195  87.9109  85.9630 0002124 104.8060 255.3307 13.18688602156801
ONEWEB-0327             
1 49196U 21083L   24343.81387815  .00000023  00000+0  24694-4 0  9993
2 49196  87.9113  85.9892 0001977 100.8641 259.2713 13.18688266156825
